[
    {"id": "1", "division_id": "1", "name": "Norshingdi", "bn_name": "নরসিংদী", "lat": "23.909", "lon": "90.709", "url": "www.norshingdi.gov.bd"},
    {"id": "2", "division_id": "1", "name": "Narayangonj", "bn_name": "নারায়ণগঞ্জ", "lat": "23.633", "lon": "90.500", "url": "www.narayangonj.gov.bd"},
    {"id": "3", "division_id": "1", "name": "Munshigonj", "bn_name": "মুন্সিগঞ্জ", "lat": "23.545", "lon": "90.189", "url": "www.munshigonj.gov.bd"},
    {"id": "4", "division_id": "1", "name": "Gazipur", "bn_name": "গাজীপুর", "lat": "23.998", "lon": "90.413", "url": "www.gazipur.gov.bd"},
    {"id": "5", "division_id": "1", "name": "Manikgonj", "bn_name": "মানিকগঞ্জ", "lat": "23.885", "lon": "90.002", "url": "www.manikgonj.gov.bd"},
    {"id": "6", "division_id": "1", "name": "Dhaka", "bn_name": "ঢাকা", "lat": "23.810", "lon": "90.413", "url": "www.dhaka.gov.bd"},
    {"id": "7", "division_id": "2", "name": "Comilla", "bn_name": "কুমিল্লা", "lat": "23.468", "lon": "91.179", "url": "www.comilla.gov.bd"},
    {"id": "8", "division_id": "2", "name": "Feni", "bn_name": "ফেনী", "lat": "23.023", "lon": "91.384", "url": "www.feni.gov.bd"},
    {"id": "9", "division_id": "2", "name": "Brahmanbaria", "bn_name": "ব্রাহ্মণবাড়িয়া", "lat": "23.957", "lon": "91.112", "url": "www.brahmanbaria.gov.bd"},
    {"id": "10", "division_id": "2", "name": "Rangamati", "bn_name": "রাঙ্গামাটি", "lat": "22.656", "lon": "92.175", "url": "www.rangamati.gov.bd"},
    {"id": "11", "division_id": "2", "name": "Noakhali", "bn_name": "নোয়াখালী", "lat": "22.870", "lon": "91.099", "url": "www.noakhali.gov.bd"},
    {"id": "12", "division_id": "2", "name": "Chandpur", "bn_name": "চাঁদপুর", "lat": "23.233", "lon": "91.694", "url": "www.chandpur.gov.bd"},
    {"id": "13", "division_id": "2", "name": "Laxmipur", "bn_name": "লক্ষ্মীপুর", "lat": "22.948", "lon": "90.829", "url": "www.laxmipur.gov.bd"},
    {"id": "14", "division_id": "2", "name": "Chittagong", "bn_name": "চট্টগ্রাম", "lat": "22.357", "lon": "91.783", "url": "www.chittagong.gov.bd"},
    {"id": "15", "division_id": "2", "name": "Cox's Bazar", "bn_name": "কক্সবাজার", "lat": "21.443", "lon": "91.975", "url": "www.coxsbazar.gov.bd"},
    {"id": "16", "division_id": "2", "name": "Khagrachari", "bn_name": "খাগ্রাছড়ি", "lat": "23.115", "lon": "91.984", "url": "www.khagrachari.gov.bd"},
    {"id": "17", "division_id": "2", "name": "Bandarban", "bn_name": "বান্দরবান", "lat": "22.195", "lon": "92.218", "url": "www.bandarban.gov.bd"},
    {"id": "18", "division_id": "3", "name": "Khulna", "bn_name": "খুলনা", "lat": "22.846", "lon": "89.540", "url": "www.khulna.gov.bd"},
    {"id": "19", "division_id": "3", "name": "Narail", "bn_name": "নড়াইল", "lat": "23.172", "lon": "89.512", "url": "www.narail.gov.bd"},
    {"id": "20", "division_id": "3", "name": "Magura", "bn_name": "মাগুরা", "lat": "23.487", "lon": "89.419", "url": "www.magura.gov.bd"},
    {"id": "21", "division_id": "3", "name": "Satkhira", "bn_name": "সাতক্ষীরা", "lat": "22.738", "lon": "89.073", "url": "www.satkhira.gov.bd"},
    {"id": "22", "division_id": "3", "name": "Bagerhat", "bn_name": "বাগেরহাট", "lat": "22.654", "lon": "89.784", "url": "www.bagerhat.gov.bd"},
    {"id": "23", "division_id": "3", "name": "Jhenaidah", "bn_name": "ঝিনাইদহ", "lat": "23.744", "lon": "89.158", "url": "www.jhenaidah.gov.bd"},
    {"id": "24", "division_id": "3", "name": "Jessore", "bn_name": "যশোর", "lat": "23.168", "lon": "89.018", "url": "www.jessore.gov.bd"},
    {"id": "25", "division_id": "3", "name": "Meherpur", "bn_name": "মেহেরপুর", "lat": "23.770", "lon": "88.630", "url": "www.meherpur.gov.bd"},
    {"id": "26", "division_id": "3", "name": "Chuadanga", "bn_name": "চুয়াডাঙ্গা", "lat": "23.630", "lon": "88.837", "url": "www.chuadanga.gov.bd"},
    {"id": "27", "division_id": "3", "name": "Kushtia", "bn_name": "কুষ্টিয়া", "lat": "23.901", "lon": "88.994", "url": "www.kushtia.gov.bd"},
    {"id": "28", "division_id": "4", "name": "Barguna", "bn_name": "বরগুনা", "lat": "21.850", "lon": "90.352", "url": "www.barguna.gov.bd"},
    {"id": "29", "division_id": "4", "name": "Bhola", "bn_name": "ভোলা", "lat": "22.685", "lon": "90.656", "url": "www.bhola.gov.bd"},
    {"id": "30", "division_id": "4", "name": "Jhalokati", "bn_name": "ঝালকাঠি", "lat": "22.642", "lon": "90.193", "url": "www.jhalokati.gov.bd"},
    {"id": "31", "division_id": "4", "name": "Barisal", "bn_name": "বরিশাল", "lat": "22.701", "lon": "90.354", "url": "www.barisal.gov.bd"},
    {"id": "32", "division_id": "4", "name": "Patuakhali", "bn_name": "পটুয়াখালী", "lat": "22.369", "lon": "90.329", "url": "www.patuakhali.gov.bd"},
    {"id": "33", "division_id": "4", "name": "Pirojpur", "bn_name": "পিরোজপুর", "lat": "22.573", "lon": "89.772", "url": "www.pirojpur.gov.bd"},
    {"id": "34", "division_id": "5", "name": "Sylhet", "bn_name": "সিলেট", "lat": "24.895", "lon": "91.869", "url": "www.sylhet.gov.bd"},
    {"id": "35", "division_id": "5", "name": "Sunamgonj", "bn_name": "সুনামগঞ্জ", "lat": "25.225", "lon": "91.400", "url": "www.sunamgonj.gov.bd"},
    {"id": "36", "division_id": "5", "name": "Mowlovibazar", "bn_name": "মৌলভীবাজার", "lat": "24.480", "lon": "91.740", "url": "www.mowlovibazar.gov.bd"},
    {"id": "37", "division_id": "5", "name": "Hobigonj", "bn_name": "হবিগঞ্জ", "lat": "24.372", "lon": "91.302", "url": "www.hobigonj.gov.bd"},
    {"id": "38", "division_id": "6", "name": "Tangail", "bn_name": "টাঙ্গাইল", "lat": "24.247", "lon": "89.917", "url": "www.tangail.gov.bd"},
    {"id": "39", "division_id": "6", "name": "Keshoregonj", "bn_name": "কিশোরগঞ্জ", "lat": "24.431", "lon": "90.778", "url": "www.kishoreganj.gov.bd"},
    {"id": "40", "division_id": "6", "name": "Netrokona", "bn_name": "নেত্রকোনা", "lat": "24.877", "lon": "90.727", "url": "www.netrokona.gov.bd"},
    {"id": "41", "division_id": "6", "name": "Jamalpur", "bn_name": "জামালপুর", "lat": "24.932", "lon": "89.927", "url": "www.jamalpur.gov.bd"},
    {"id": "42", "division_id": "6", "name": "Sherpur", "bn_name": "শেরপুর", "lat": "25.208", "lon": "90.016", "url": "www.sherpur.gov.bd"},
    {"id": "43", "division_id": "6", "name": "Mymensingh", "bn_name": "ময়মনসিংহ", "lat": "24.747", "lon": "90.408", "url": "www.mymensingh.gov.bd"},
    {"id": "44", "division_id": "7", "name": "Bogra", "bn_name": "বগুড়া", "lat": "24.846", "lon": "89.368", "url": "www.bogra.gov.bd"},
    {"id": "45", "division_id": "7", "name": "Pabna", "bn_name": "পাবনা", "lat": "24.006", "lon": "89.238", "url": "www.pabna.gov.bd"},
    {"id": "46", "division_id": "7", "name": "Rajshahi", "bn_name": "রাজশাহী", "lat": "24.375", "lon": "88.604", "url": "www.rajshahi.gov.bd"},
    {"id": "47", "division_id": "7", "name": "Natore", "bn_name": "নাটোর", "lat": "24.423", "lon": "88.990", "url": "www.natore.gov.bd"},
    {"id": "48", "division_id": "7", "name": "Chapai Nawabganj", "bn_name": "চাঁপাইনবাবগঞ্জ", "lat": "24.749", "lon": "88.281", "url": "www.chapainawabganj.gov.bd"},
    {"id": "49", "division_id": "7", "name": "Naogaon", "bn_name": "নওগাঁ", "lat": "24.735", "lon": "88.923", "url": "www.naogaon.gov.bd"},
    {"id": "50", "division_id": "7", "name": "Joypurhat", "bn_name": "জয়পুরহাট", "lat": "24.844", "lon": "89.030", "url": "www.joypurhat.gov.bd"},
    {"id": "51", "division_id": "7", "name": "Sirajganj", "bn_name": "সিরাজগঞ্জ", "lat": "24.454", "lon": "89.700", "url": "www.sirajganj.gov.bd"},
    {"id": "52", "division_id": "8", "name": "Nilphamari", "bn_name": "নীলফামারী", "lat": "25.927", "lon": "88.856", "url": "www.nilphamari.gov.bd"},
    {"id": "53", "division_id": "8", "name": "Thakurgaon", "bn_name": "ঠাকুরগাঁও", "lat": "26.007", "lon": "88.462", "url": "www.thakurgaon.gov.bd"},
    {"id": "54", "division_id": "8", "name": "Gaibandha", "bn_name": "গাইবান্ধা", "lat": "25.927", "lon": "89.528", "url": "www.gaibandha.gov.bd"},
    {"id": "55", "division_id": "8", "name": "Lalmonirhat", "bn_name": "লালমনিরহাট", "lat": "25.920", "lon": "90.289", "url": "www.lalmonirhat.gov.bd"},
    {"id": "56", "division_id": "8", "name": "Kurigram", "bn_name": "কুড়িগ্রাম", "lat": "25.805", "lon": "89.636", "url": "www.kurigram.gov.bd"},
    {"id": "57", "division_id": "8", "name": "Dinajpur", "bn_name": "দিনাজপুর", "lat": "25.627", "lon": "88.641", "url": "www.dinajpur.gov.bd"},
    {"id": "58", "division_id": "8", "name": "Rangpur", "bn_name": "রংপুর", "lat": "25.744", "lon": "89.275", "url": "www.rangpur.gov.bd"},
    {"id": "59", "division_id": "8", "name": "Panchagarh", "bn_name": "পঞ্চগড়", "lat": "26.346", "lon": "88.555", "url": "www.panchagarh.gov.bd"},
    {"id": "60", "division_id": "3", "name": "Faridpur", "bn_name": "ফরিদপুর", "lat": "23.605", "lon": "89.846", "url": "www.faridpur.gov.bd"},
    {"id": "61", "division_id": "3", "name": "Rajbari", "bn_name": "রাজবাড়ী", "lat": "23.747", "lon": "89.640", "url": "www.rajbari.gov.bd"},
    {"id": "62", "division_id": "4", "name": "Gopalgonj", "bn_name": "গোপালগঞ্জ", "lat": "23.011", "lon": "90.667", "url": "www.gopalgonj.gov.bd"},
    {"id": "63", "division_id": "4", "name": "Madaripur", "bn_name": "মাদারীপুর", "lat": "23.164", "lon": "90.195", "url": "www.madaripur.gov.bd"},
    {"id": "64", "division_id": "4", "name": "Shariatpur", "bn_name": "শরীয়তপুর", "lat": "23.245", "lon": "90.427", "url": "www.shariatpur.gov.bd"}
]
