[
    {"id": "1", "district_id": "6", "name": "Kotwali", "bn_name": "কোটওয়ালী", "lat": "23.728", "lon": "90.387"},
    {"id": "2", "district_id": "6", "name": "Mohammadpur", "bn_name": "মোহাম্মদপুর", "lat": "23.721", "lon": "90.336"},
    {"id": "3", "district_id": "6", "name": "Lalbagh", "bn_name": "লালবাগ", "lat": "23.724", "lon": "90.402"},
    {"id": "4", "district_id": "6", "name": "Sutrapur", "bn_name": "সুত্রাপুর", "lat": "23.707", "lon": "90.386"},
    {"id": "5", "district_id": "6", "name": "Motijheel", "bn_name": "মতিঝিল", "lat": "23.761", "lon": "90.385"},
    {"id": "6", "district_id": "6", "name": "Demra", "bn_name": "ডেমরা", "lat": "23.700", "lon": "90.438"},
    {"id": "7", "district_id": "6", "name": "Sabujbagh", "bn_name": "সবুজবাগ", "lat": "23.722", "lon": "90.395"},
    {"id": "8", "district_id": "6", "name": "Mirpur", "bn_name": "মিরপুর", "lat": "23.810", "lon": "90.369"},
    {"id": "9", "district_id": "6", "name": "Gulshan", "bn_name": "গুলশান", "lat": "23.810", "lon": "90.417"},
    {"id": "10", "district_id": "6", "name": "Uttara", "bn_name": "উত্তরা", "lat": "23.876", "lon": "90.407"},
    {"id": "11", "district_id": "6", "name": "Pallabi", "bn_name": "পল্লবী", "lat": "23.836", "lon": "90.337"},
    {"id": "12", "district_id": "6", "name": "Cantonment", "bn_name": "ক্যান্টনমেন্ট", "lat": "23.818", "lon": "90.403"},
    {"id": "13", "district_id": "6", "name": "Dhanmondi", "bn_name": "ধানমণ্ডি", "lat": "23.761", "lon": "90.365"},
    {"id": "14", "district_id": "6", "name": "Tejgaon", "bn_name": "তেজগাঁও", "lat": "23.769", "lon": "90.376"},
    {"id": "15", "district_id": "6", "name": "Ramna", "bn_name": "রমনা", "lat": "23.741", "lon": "90.401"},
    {"id": "16", "district_id": "14", "name": "Kotwali", "bn_name": "কোটওয়ালী", "lat": "22.337", "lon": "91.833"},
    {"id": "17", "district_id": "14", "name": "Panchlaish", "bn_name": "পাঁচলাইশ", "lat": "22.308", "lon": "91.793"},
    {"id": "18", "district_id": "14", "name": "Chandgaon", "bn_name": "চাঁদগাঁও", "lat": "22.364", "lon": "91.805"},
    {"id": "19", "district_id": "14", "name": "Bandor", "bn_name": "বন্দর", "lat": "22.294", "lon": "91.815"},
    {"id": "20", "district_id": "14", "name": "Pahartali", "bn_name": "পাহাড়তলী", "lat": "22.365", "lon": "91.819"},
    {"id": "21", "district_id": "14", "name": "Double Mooring", "bn_name": "ডাবল মোরিং", "lat": "22.350", "lon": "91.805"},
    {"id": "22", "district_id": "18", "name": "Sadar", "bn_name": "সদর", "lat": "22.846", "lon": "89.540"},
    {"id": "23", "district_id": "18", "name": "Sonadanga", "bn_name": "সোনাডাঙ্গা", "lat": "22.802", "lon": "89.567"},
    {"id": "24", "district_id": "24", "name": "Daulatpur", "bn_name": "দৌলতপুর", "lat": "23.168", "lon": "89.018"}
]
