[
    {"id": "1", "district_id": "1", "name": "Sadar", "bn_name": "সদর", "lat": "23.909", "lon": "90.709"},
    {"id": "2", "district_id": "1", "name": "Monohardi", "bn_name": "মনোহার্দী", "lat": "23.923", "lon": "90.595"},
    {"id": "3", "district_id": "1", "name": "Shibpur", "bn_name": "শিবপুর", "lat": "24.006", "lon": "90.711"},
    {"id": "4", "district_id": "1", "name": "Palash", "bn_name": "পলাশ", "lat": "23.758", "lon": "90.703"},
    {"id": "5", "district_id": "1", "name": "Belabo", "bn_name": "বেলাবো", "lat": "23.869", "lon": "90.850"},
    {"id": "6", "district_id": "1", "name": "Raipura", "bn_name": "রাইপুরা", "lat": "23.889", "lon": "90.854"},
    {"id": "7", "district_id": "2", "name": "Sadar", "bn_name": "সদর", "lat": "23.633", "lon": "90.500"},
    {"id": "8", "district_id": "2", "name": "Bandar", "bn_name": "বন্দর", "lat": "23.612", "lon": "90.455"},
    {"id": "9", "district_id": "2", "name": "Sonargaon", "bn_name": "সোনারগাঁ", "lat": "23.671", "lon": "90.508"},
    {"id": "10", "district_id": "2", "name": "Arai Hazar", "bn_name": "আড়াই হাজার", "lat": "23.562", "lon": "90.613"},
    {"id": "11", "district_id": "2", "name": "Rupganj", "bn_name": "রূপগঞ্জ", "lat": "23.571", "lon": "90.447"},
    {"id": "12", "district_id": "3", "name": "Sadar", "bn_name": "সদর", "lat": "23.545", "lon": "90.189"},
    {"id": "13", "district_id": "3", "name": "Tungibari", "bn_name": "টুঙ্গিবাড়ী", "lat": "23.459", "lon": "90.228"},
    {"id": "14", "district_id": "3", "name": "Louhajanj", "bn_name": "লৌহজঞ্জ", "lat": "23.582", "lon": "90.024"},
    {"id": "15", "district_id": "3", "name": "Sreenagor", "bn_name": "শ্রীনগর", "lat": "23.697", "lon": "90.193"},
    {"id": "16", "district_id": "3", "name": "Sreenakul", "bn_name": "শ্রীনাকুল", "lat": "23.471", "lon": "90.166"},
    {"id": "17", "district_id": "3", "name": "Gazaria", "bn_name": "গাজারিয়া", "lat": "23.417", "lon": "90.223"},
    {"id": "18", "district_id": "4", "name": "Sadar", "bn_name": "সদর", "lat": "23.998", "lon": "90.413"},
    {"id": "19", "district_id": "4", "name": "Tongi", "bn_name": "টঙ্গী", "lat": "24.030", "lon": "90.417"},
    {"id": "20", "district_id": "4", "name": "Kaliganj", "bn_name": "কালীগঞ্জ", "lat": "23.980", "lon": "90.533"},
    {"id": "21", "district_id": "4", "name": "Kaliakoir", "bn_name": "কালিয়াকৈর", "lat": "24.127", "lon": "90.348"},
    {"id": "22", "district_id": "4", "name": "Kapashia", "bn_name": "কাপাশিয়া", "lat": "24.077", "lon": "90.226"},
    {"id": "23", "district_id": "4", "name": "Sreepur", "bn_name": "শ্রীপুর", "lat": "24.074", "lon": "90.511"},
    {"id": "24", "district_id": "5", "name": "Sadar", "bn_name": "সদর", "lat": "23.885", "lon": "90.002"},
    {"id": "25", "district_id": "5", "name": "Singair", "bn_name": "সিঙ্গাইর", "lat": "23.932", "lon": "89.868"},
    {"id": "26", "district_id": "5", "name": "Daulatpur", "bn_name": "দৌলতপুর", "lat": "23.877", "lon": "90.107"},
    {"id": "27", "district_id": "5", "name": "Harirampur", "bn_name": "হরিরামপুর", "lat": "23.717", "lon": "90.042"},
    {"id": "28", "district_id": "5", "name": "Gheor", "bn_name": "ঘেওর", "lat": "23.849", "lon": "89.916"},
    {"id": "29", "district_id": "5", "name": "Shibaloy", "bn_name": "শিবালয়", "lat": "23.952", "lon": "90.019"},
    {"id": "30", "district_id": "5", "name": "Sauturiya", "bn_name": "শতুরিয়া", "lat": "23.762", "lon": "90.113"},
    {"id": "31", "district_id": "6", "name": "Keraniganj", "bn_name": "কেরানীগঞ্জ", "lat": "23.727", "lon": "90.283"},
    {"id": "32", "district_id": "6", "name": "Dohar", "bn_name": "দোহার", "lat": "23.597", "lon": "90.264"},
    {"id": "33", "district_id": "6", "name": "Nawabganj", "bn_name": "নবাবগঞ্জ", "lat": "23.787", "lon": "90.294"},
    {"id": "34", "district_id": "6", "name": "Savar", "bn_name": "সাভার", "lat": "23.873", "lon": "90.248"},
    {"id": "35", "district_id": "6", "name": "Dhamrai", "bn_name": "ধামরাই", "lat": "24.019", "lon": "90.344"},
    {"id": "36", "district_id": "7", "name": "Sadar", "bn_name": "সদর", "lat": "23.468", "lon": "91.179"},
    {"id": "37", "district_id": "7", "name": "Boalmari", "bn_name": "বোয়ালমারী", "lat": "23.363", "lon": "91.187"},
    {"id": "38", "district_id": "7", "name": "Sadarpur", "bn_name": "সাদারপুর", "lat": "23.274", "lon": "91.267"},
    {"id": "39", "district_id": "7", "name": "Char Bhadrasan", "bn_name": "চর ভদ্রসন", "lat": "23.379", "lon": "91.120"},
    {"id": "40", "district_id": "8", "name": "Bhanga", "bn_name": "ভাঙ্গা", "lat": "23.024", "lon": "91.376"},
    {"id": "41", "district_id": "8", "name": "Nagarkanda", "bn_name": "নাগরকান্দা", "lat": "23.002", "lon": "91.202"},
    {"id": "42", "district_id": "8", "name": "Madhukhali", "bn_name": "মধুখালী", "lat": "23.119", "lon": "91.357"},
    {"id": "43", "district_id": "8", "name": "Alphadighi", "bn_name": "আলফাডাঙ্গা", "lat": "22.974", "lon": "91.224"},
    {"id": "44", "district_id": "8", "name": "Saltana", "bn_name": "সালথানা", "lat": "22.996", "lon": "91.500"},
    {"id": "45", "district_id": "9", "name": "Sadar", "bn_name": "সদর", "lat": "23.957", "lon": "91.112"},
    {"id": "46", "district_id": "9", "name": "Pangsha", "bn_name": "পাংশা", "lat": "23.941", "lon": "91.194"},
    {"id": "47", "district_id": "9", "name": "Goalando", "bn_name": "গোয়ালান্দো", "lat": "23.844", "lon": "90.918"},
    {"id": "48", "district_id": "9", "name": "Kalukhali", "bn_name": "কালুখালী", "lat": "23.845", "lon": "91.089"},
    {"id": "49", "district_id": "9", "name": "Baliakandi", "bn_name": "বালিয়াকান্দি", "lat": "23.940", "lon": "91.004"},
    {"id": "50", "district_id": "10", "name": "Sadar", "bn_name": "সদর", "lat": "22.870", "lon": "91.099"},
    {"id": "51", "district_id": "10", "name": "Kashiani", "bn_name": "কাশিয়ানী", "lat": "22.789", "lon": "91.063"},
    {"id": "52", "district_id": "10", "name": "Tengipara", "bn_name": "টেঙ্গিপাড়া", "lat": "22.993", "lon": "91.080"},
    {"id": "53", "district_id": "10", "name": "Muksudpur", "bn_name": "মুক্সুদপুর", "lat": "22.934", "lon": "91.228"},
    {"id": "54", "district_id": "10", "name": "Kotalipara", "bn_name": "কোটালীপাড়া", "lat": "22.779", "lon": "90.823"},
    {"id": "55", "district_id": "11", "name": "Sadar", "bn_name": "সদর", "lat": "22.656", "lon": "92.175"},
    {"id": "56", "district_id": "11", "name": "Kalkini", "bn_name": "কালকিনি", "lat": "22.462", "lon": "92.142"},
    {"id": "57", "district_id": "11", "name": "Rajoir", "bn_name": "রাজোয়ীর", "lat": "22.483", "lon": "92.046"},
    {"id": "58", "district_id": "11", "name": "Shibchar", "bn_name": "শিবচর", "lat": "22.532", "lon": "92.273"},
    {"id": "59", "district_id": "12", "name": "Sadar", "bn_name": "সদর", "lat": "23.233", "lon": "91.694"},
    {"id": "60", "district_id": "12", "name": "Anwara", "bn_name": "আনোয়ারা", "lat": "23.204", "lon": "91.642"},
    {"id": "61", "district_id": "12", "name": "Lohagora", "bn_name": "লোহাগড়া", "lat": "22.936", "lon": "91.535"},
    {"id": "62", "district_id": "12", "name": "Sandip", "bn_name": "সন্দ্বীপ", "lat": "22.851", "lon": "91.401"},
    {"id": "63", "district_id": "13", "name": "Sadar", "bn_name": "সদর", "lat": "22.948", "lon": "90.829"},
    {"id": "64", "district_id": "13", "name": "Ramganj", "bn_name": "রামগঞ্জ", "lat": "22.872", "lon": "90.838"},
    {"id": "65", "district_id": "13", "name": "Kamalnagar", "bn_name": "কামালনগর", "lat": "22.856", "lon": "91.085"},
    {"id": "66", "district_id": "13", "name": "Raipur", "bn_name": "রায়পুর", "lat": "23.085", "lon": "90.834"},
    {"id": "67", "district_id": "14", "name": "Kotwali", "bn_name": "কোটওয়ালী", "lat": "22.337", "lon": "91.833"},
    {"id": "68", "district_id": "14", "name": "Panchlaish", "bn_name": "পাঁচলাইশ", "lat": "22.308", "lon": "91.793"},
    {"id": "69", "district_id": "14", "name": "Hathazari", "bn_name": "হাঠাজারী", "lat": "22.631", "lon": "91.877"},
    {"id": "70", "district_id": "14", "name": "Mirasharai", "bn_name": "মীরসরাই", "lat": "22.539", "lon": "91.703"},
    {"id": "71", "district_id": "14", "name": "Rangunia", "bn_name": "রাঙ্গুনিয়া", "lat": "22.296", "lon": "91.709"},
    {"id": "72", "district_id": "14", "name": "Sitakunda", "bn_name": "সীতাকুণ্ড", "lat": "22.654", "lon": "91.656"},
    {"id": "73", "district_id": "14", "name": "Rauzan", "bn_name": "রাউজান", "lat": "22.509", "lon": "91.950"},
    {"id": "74", "district_id": "14", "name": "Anwara", "bn_name": "আনোয়ারা", "lat": "22.328", "lon": "91.950"},
    {"id": "75", "district_id": "14", "name": "Boalkhali", "bn_name": "বোয়ালখালী", "lat": "22.268", "lon": "91.938"},
    {"id": "76", "district_id": "14", "name": "Satkania", "bn_name": "সাটকানিয়া", "lat": "22.186", "lon": "91.763"},
    {"id": "77", "district_id": "14", "name": "Banshkhali", "bn_name": "বান্শখালী", "lat": "22.115", "lon": "91.738"},
    {"id": "78", "district_id": "15", "name": "Teknaf", "bn_name": "টেকনাফ", "lat": "21.180", "lon": "92.298"},
    {"id": "79", "district_id": "15", "name": "Ukhia", "bn_name": "উখিয়া", "lat": "21.631", "lon": "92.050"},
    {"id": "80", "district_id": "15", "name": "Ramu", "bn_name": "রামু", "lat": "21.858", "lon": "92.160"},
    {"id": "81", "district_id": "15", "name": "Sadar", "bn_name": "সদর", "lat": "21.443", "lon": "91.975"},
    {"id": "82", "district_id": "15", "name": "Kutubdia", "bn_name": "কুতুবদিয়া", "lat": "21.824", "lon": "91.873"},
    {"id": "83", "district_id": "15", "name": "Moheshkhali", "bn_name": "মহেশখালী", "lat": "21.638", "lon": "91.905"},
    {"id": "84", "district_id": "16", "name": "Sadar", "bn_name": "সদর", "lat": "23.115", "lon": "91.984"},
    {"id": "85", "district_id": "16", "name": "Dighinala", "bn_name": "দিঘিনালা", "lat": "23.360", "lon": "92.038"},
    {"id": "86", "district_id": "16", "name": "Ramgarh", "bn_name": "রামগড়", "lat": "23.236", "lon": "91.854"},
    {"id": "87", "district_id": "16", "name": "Matiranga", "bn_name": "মাটিরাঙ্গা", "lat": "22.896", "lon": "91.962"},
    {"id": "88", "district_id": "16", "name": "Laksmicharai", "bn_name": "লক্ষ্মীছড়ি", "lat": "22.880", "lon": "91.815"},
    {"id": "89", "district_id": "16", "name": "Manikchari", "bn_name": "মানিকছড়ি", "lat": "22.738", "lon": "92.101"},
    {"id": "90", "district_id": "17", "name": "Sadar", "bn_name": "সদর", "lat": "22.195", "lon": "92.218"},
    {"id": "91", "district_id": "17", "name": "Lama", "bn_name": "লামা", "lat": "21.980", "lon": "92.187"},
    {"id": "92", "district_id": "17", "name": "Naikhongchari", "bn_name": "নাইখংছড়ি", "lat": "21.883", "lon": "92.322"},
    {"id": "93", "district_id": "17", "name": "Rowanchhari", "bn_name": "রোয়াঞ্চছড়ি", "lat": "22.124", "lon": "92.312"},
    {"id": "94", "district_id": "17", "name": "Alikadam", "bn_name": "আলীকদম", "lat": "22.238", "lon": "92.227"},
    {"id": "95", "district_id": "18", "name": "Sadar", "bn_name": "সদর", "lat": "22.846", "lon": "89.540"},
    {"id": "96", "district_id": "18", "name": "Batiaghata", "bn_name": "বাটিয়াঘাটা", "lat": "22.691", "lon": "89.476"},
    {"id": "97", "district_id": "18", "name": "Dumuria", "bn_name": "ডুমুরিয়া", "lat": "22.813", "lon": "89.271"},
    {"id": "98", "district_id": "18", "name": "Dakop", "bn_name": "ডাকোপ", "lat": "22.705", "lon": "89.760"},
    {"id": "99", "district_id": "18", "name": "Koira", "bn_name": "কৈরা", "lat": "22.589", "lon": "89.844"},
    {"id": "100", "district_id": "18", "name": "Phultala", "bn_name": "ফুলতলা", "lat": "22.934", "lon": "89.363"},
    {"id": "101", "district_id": "19", "name": "Sadar", "bn_name": "সদর", "lat": "23.172", "lon": "89.512"},
    {"id": "102", "district_id": "19", "name": "Lohagora", "bn_name": "লোহাগড়া", "lat": "23.069", "lon": "89.525"},
    {"id": "103", "district_id": "20", "name": "Sadar", "bn_name": "সদর", "lat": "23.487", "lon": "89.419"},
    {"id": "104", "district_id": "20", "name": "Sreepur", "bn_name": "শ্রীপুর", "lat": "23.609", "lon": "89.311"},
    {"id": "105", "district_id": "20", "name": "Salikha", "bn_name": "সালিখা", "lat": "23.372", "lon": "89.546"},
    {"id": "106", "district_id": "20", "name": "Mohammadpur", "bn_name": "মোহাম্মদপুর", "lat": "23.406", "lon": "89.355"},
    {"id": "107", "district_id": "21", "name": "Sadar", "bn_name": "সদর", "lat": "22.738", "lon": "89.073"},
    {"id": "108", "district_id": "21", "name": "Shyamnagar", "bn_name": "শ্যামনগর", "lat": "22.387", "lon": "88.959"},
    {"id": "109", "district_id": "21", "name": "Assasuni", "bn_name": "আসাশুনি", "lat": "22.650", "lon": "88.865"},
    {"id": "110", "district_id": "21", "name": "Tala", "bn_name": "তালা", "lat": "22.891", "lon": "88.917"},
    {"id": "111", "district_id": "21", "name": "Kaliganj", "bn_name": "কালিগঞ্জ", "lat": "22.850", "lon": "88.961"},
    {"id": "112", "district_id": "21", "name": "Kolaroa", "bn_name": "কোলারোয়া", "lat": "22.900", "lon": "89.252"},
    {"id": "113", "district_id": "21", "name": "Debhata", "bn_name": "দেবহাটা", "lat": "22.679", "lon": "89.048"},
    {"id": "114", "district_id": "22", "name": "Sadar", "bn_name": "সদর", "lat": "22.654", "lon": "89.784"},
    {"id": "115", "district_id": "22", "name": "Kochua", "bn_name": "কোচুয়া", "lat": "22.519", "lon": "89.853"},
    {"id": "116", "district_id": "22", "name": "Rampal", "bn_name": "রামপাল", "lat": "22.456", "lon": "89.600"},
    {"id": "117", "district_id": "22", "name": "Morrelganj", "bn_name": "মরেলগঞ্জ", "lat": "22.737", "lon": "89.918"},
    {"id": "118", "district_id": "22", "name": "Mollahat", "bn_name": "মোল্লাহাট", "lat": "22.819", "lon": "89.906"},
    {"id": "119", "district_id": "22", "name": "Chitalmari", "bn_name": "চিতলমারী", "lat": "22.514", "lon": "89.662"},
    {"id": "120", "district_id": "23", "name": "Sadar", "bn_name": "সদর", "lat": "23.744", "lon": "89.158"},
    {"id": "121", "district_id": "23", "name": "Kaliganj", "bn_name": "কালিগঞ্জ", "lat": "23.647", "lon": "89.034"},
    {"id": "122", "district_id": "23", "name": "Kotchandpur", "bn_name": "কোটচাঁদপুর", "lat": "23.606", "lon": "89.259"},
    {"id": "123", "district_id": "23", "name": "Harinakundi", "bn_name": "হরিণাকুন্ডি", "lat": "23.667", "lon": "89.262"},
    {"id": "124", "district_id": "24", "name": "Sadar", "bn_name": "সদর", "lat": "23.168", "lon": "89.018"},
    {"id": "125", "district_id": "24", "name": "Abhaynagar", "bn_name": "অভয়নগর", "lat": "23.224", "lon": "88.921"},
    {"id": "126", "district_id": "24", "name": "Bagherpara", "bn_name": "বাঘেরপাড়া", "lat": "23.265", "lon": "89.170"},
    {"id": "127", "district_id": "24", "name": "Monirampur", "bn_name": "মনিরামপুর", "lat": "23.240", "lon": "89.110"},
    {"id": "128", "district_id": "24", "name": "Chowgacha", "bn_name": "চৌগাছা", "lat": "23.011", "lon": "88.889"},
    {"id": "129", "district_id": "24", "name": "Sharsha", "bn_name": "শার্শা", "lat": "23.137", "lon": "89.128"},
    {"id": "130", "district_id": "25", "name": "Sadar", "bn_name": "সদর", "lat": "23.770", "lon": "88.630"},
    {"id": "131", "district_id": "26", "name": "Sadar", "bn_name": "সদর", "lat": "23.630", "lon": "88.837"},
    {"id": "132", "district_id": "27", "name": "Sadar", "bn_name": "সদর", "lat": "23.901", "lon": "88.994"},
    {"id": "133", "district_id": "27", "name": "Kumarkhali", "bn_name": "কুমারখালী", "lat": "23.889", "lon": "88.868"},
    {"id": "134", "district_id": "27", "name": "Daulatpur", "bn_name": "দৌলতপুর", "lat": "23.847", "lon": "89.170"},
    {"id": "135", "district_id": "27", "name": "Bheramara", "bn_name": "ভেরামারা", "lat": "24.013", "lon": "89.077"},
    {"id": "136", "district_id": "27", "name": "Khoksa", "bn_name": "খোকসা", "lat": "24.011", "lon": "88.876"},
    {"id": "137", "district_id": "27", "name": "Mirpur", "bn_name": "মিরপুর", "lat": "24.193", "lon": "89.058"},
    {"id": "138", "district_id": "28", "name": "Sadar", "bn_name": "সদর", "lat": "21.850", "lon": "90.352"},
    {"id": "139", "district_id": "28", "name": "Amtali", "bn_name": "আমতালী", "lat": "21.877", "lon": "90.476"},
    {"id": "140", "district_id": "28", "name": "Betagi", "bn_name": "বেতাগী", "lat": "21.923", "lon": "90.279"},
    {"id": "141", "district_id": "28", "name": "Taltali", "bn_name": "তালতালী", "lat": "21.757", "lon": "90.252"},
    {"id": "142", "district_id": "29", "name": "Sadar", "bn_name": "সদর", "lat": "22.685", "lon": "90.656"},
    {"id": "143", "district_id": "29", "name": "Daultkhan", "bn_name": "দৌলতখান", "lat": "22.851", "lon": "90.779"},
    {"id": "144", "district_id": "29", "name": "Lalmohon", "bn_name": "লালমোহন", "lat": "22.612", "lon": "90.803"},
    {"id": "145", "district_id": "29", "name": "Monpura", "bn_name": "মনপুরা", "lat": "22.497", "lon": "90.495"},
    {"id": "146", "district_id": "29", "name": "Charfassion", "bn_name": "চরফাশিয়ন", "lat": "22.338", "lon": "90.669"},
    {"id": "147", "district_id": "29", "name": "Tajumuddin", "bn_name": "তাজুমুদ্দিন", "lat": "22.307", "lon": "90.878"},
    {"id": "148", "district_id": "29", "name": "Borhanuddin", "bn_name": "বোরহানউদ্দিন", "lat": "22.589", "lon": "90.483"},
    {"id": "149", "district_id": "30", "name": "Sadar", "bn_name": "সদর", "lat": "22.642", "lon": "90.193"},
    {"id": "150", "district_id": "30", "name": "Nalchiti", "bn_name": "নালচিটি", "lat": "22.672", "lon": "90.269"},
    {"id": "151", "district_id": "30", "name": "Rajapur", "bn_name": "রাজাপুর", "lat": "22.730", "lon": "90.142"},
    {"id": "152", "district_id": "30", "name": "Katalia", "bn_name": "কাটালিয়া", "lat": "22.541", "lon": "90.047"},
    {"id": "153", "district_id": "31", "name": "Sadar", "bn_name": "সদর", "lat": "22.701", "lon": "90.354"},
    {"id": "154", "district_id": "31", "name": "Gournadi", "bn_name": "গৌরনদী", "lat": "22.561", "lon": "90.356"},
    {"id": "155", "district_id": "31", "name": "Agailjhara", "bn_name": "আগৈলঝারা", "lat": "22.813", "lon": "90.156"},
    {"id": "156", "district_id": "31", "name": "Hizla", "bn_name": "হিজলা", "lat": "22.869", "lon": "90.279"},
    {"id": "157", "district_id": "31", "name": "Ujirpur", "bn_name": "উজিরপুর", "lat": "22.932", "lon": "90.237"},
    {"id": "158", "district_id": "31", "name": "Mehedigan", "bn_name": "মেহেদিগঞ্জ", "lat": "22.836", "lon": "90.545"},
    {"id": "159", "district_id": "31", "name": "Babuganj", "bn_name": "বাবুগঞ্জ", "lat": "22.667", "lon": "90.430"},
    {"id": "160", "district_id": "31", "name": "Bakerganj", "bn_name": "বাকেরগঞ্জ", "lat": "22.530", "lon": "90.379"},
    {"id": "161", "district_id": "31", "name": "Banaripara", "bn_name": "বানারীপাড়া", "lat": "22.592", "lon": "90.243"},
    {"id": "162", "district_id": "32", "name": "Sadar", "bn_name": "সদর", "lat": "22.369", "lon": "90.329"},
    {"id": "163", "district_id": "32", "name": "Golachipa", "bn_name": "গোলাচিপা", "lat": "22.168", "lon": "90.348"},
    {"id": "164", "district_id": "32", "name": "Kolapara", "bn_name": "কোলাপাড়া", "lat": "22.258", "lon": "90.524"},
    {"id": "165", "district_id": "32", "name": "Dashmina", "bn_name": "দশমিনা", "lat": "22.102", "lon": "90.248"},
    {"id": "166", "district_id": "32", "name": "Bauphal", "bn_name": "বাউফল", "lat": "22.455", "lon": "90.432"},
    {"id": "167", "district_id": "32", "name": "Rangabali", "bn_name": "রাঙ্গাবালী", "lat": "22.117", "lon": "90.599"},
    {"id": "168", "district_id": "32", "name": "Dumki", "bn_name": "ডুমকি", "lat": "22.295", "lon": "90.651"},
    {"id": "169", "district_id": "32", "name": "Mirjaganj", "bn_name": "মির্জাগঞ্জ", "lat": "22.437", "lon": "90.133"},
    {"id": "170", "district_id": "33", "name": "Sadar", "bn_name": "সদর", "lat": "22.573", "lon": "89.772"},
    {"id": "171", "district_id": "33", "name": "Mothbaria", "bn_name": "মোথবাড়িয়া", "lat": "22.415", "lon": "89.718"},
    {"id": "172", "district_id": "33", "name": "Nazirpur", "bn_name": "নাজিরপুর", "lat": "22.484", "lon": "89.627"},
    {"id": "173", "district_id": "33", "name": "Nesarabad", "bn_name": "নেসারাবাদ", "lat": "22.790", "lon": "89.883"},
    {"id": "174", "district_id": "33", "name": "Zianagar", "bn_name": "জিয়ানাগর", "lat": "22.679", "lon": "89.951"},
    {"id": "175", "district_id": "33", "name": "Kauhali", "bn_name": "কৌহালী", "lat": "22.535", "lon": "89.614"},
    {"id": "176", "district_id": "33", "name": "Bhandaria", "bn_name": "ভান্ডারিয়া", "lat": "22.717", "lon": "89.822"},
    {"id": "177", "district_id": "34", "name": "Sadar", "bn_name": "সদর", "lat": "24.895", "lon": "91.869"},
    {"id": "178", "district_id": "34", "name": "Gopalganj", "bn_name": "গোপালগঞ্জ", "lat": "24.810", "lon": "91.733"},
    {"id": "179", "district_id": "34", "name": "Biwanibazar", "bn_name": "বিয়ানিবাজার", "lat": "24.455", "lon": "91.755"},
    {"id": "180", "district_id": "34", "name": "Jokiganj", "bn_name": "জকিগঞ্জ", "lat": "24.643", "lon": "91.706"},
    {"id": "181", "district_id": "34", "name": "Companiganj", "bn_name": "কোম্পানীগঞ্জ", "lat": "24.886", "lon": "91.625"},
    {"id": "182", "district_id": "34", "name": "Jaintapur", "bn_name": "জয়ন্তিপুর", "lat": "25.145", "lon": "91.911"},
    {"id": "183", "district_id": "34", "name": "Dakshin Surma", "bn_name": "দক্ষিণ সুরমা", "lat": "24.721", "lon": "91.925"},
    {"id": "184", "district_id": "34", "name": "Fenchuganj", "bn_name": "ফেঞ্চুগঞ্জ", "lat": "24.570", "lon": "92.099"},
    {"id": "185", "district_id": "34", "name": "Bishwambarpur", "bn_name": "বিশ্বম্ভরপুর", "lat": "24.934", "lon": "92.043"},
    {"id": "186", "district_id": "34", "name": "Balagonj", "bn_name": "বালাগঞ্জ", "lat": "25.079", "lon": "92.121"},
    {"id": "187", "district_id": "34", "name": "Gowainghat", "bn_name": "গোয়াইনঘাট", "lat": "25.214", "lon": "92.028"},
    {"id": "188", "district_id": "34", "name": "Kanaighat", "bn_name": "কানাইঘাট", "lat": "24.997", "lon": "91.626"},
    {"id": "189", "district_id": "35", "name": "Sadar", "bn_name": "সদর", "lat": "25.225", "lon": "91.400"},
    {"id": "190", "district_id": "35", "name": "Jamaiganj", "bn_name": "জামাইগঞ্জ", "lat": "25.368", "lon": "91.414"},
    {"id": "191", "district_id": "35", "name": "Jagannathpur", "bn_name": "জাগন্নাথপুর", "lat": "25.196", "lon": "91.694"},
    {"id": "192", "district_id": "35", "name": "Sulla", "bn_name": "সুল্লা", "lat": "25.088", "lon": "91.285"},
    {"id": "193", "district_id": "35", "name": "Dharampasha", "bn_name": "ধর্মপাশা", "lat": "25.440", "lon": "91.578"},
    {"id": "194", "district_id": "35", "name": "Bishwambarpur", "bn_name": "বিশ্বম্ভরপুর", "lat": "25.279", "lon": "91.217"},
    {"id": "195", "district_id": "35", "name": "Suten Sunamganj", "bn_name": "সুটেন সুনামগঞ্জ", "lat": "25.355", "lon": "91.121"},
    {"id": "196", "district_id": "35", "name": "Satuk", "bn_name": "সাতুক", "lat": "25.147", "lon": "91.539"},
    {"id": "197", "district_id": "35", "name": "Deora Bazar", "bn_name": "দেওরা বাজার", "lat": "25.350", "lon": "91.088"},
    {"id": "198", "district_id": "35", "name": "Derai", "bn_name": "দেরাই", "lat": "25.475", "lon": "91.376"},
    {"id": "199", "district_id": "35", "name": "Tahirpur", "bn_name": "তাহিরপুর", "lat": "25.508", "lon": "91.529"},
    {"id": "200", "district_id": "36", "name": "Sadar", "bn_name": "সদর", "lat": "24.480", "lon": "91.740"},
    {"id": "201", "district_id": "36", "name": "Rajnagar", "bn_name": "রাজনগর", "lat": "24.532", "lon": "91.595"},
    {"id": "202", "district_id": "36", "name": "Kulaura", "bn_name": "কুলাউড়া", "lat": "24.350", "lon": "91.852"},
    {"id": "203", "district_id": "36", "name": "Juri", "bn_name": "জুড়ী", "lat": "24.626", "lon": "92.011"},
    {"id": "204", "district_id": "36", "name": "Borolikha", "bn_name": "বড় লেখা", "lat": "24.385", "lon": "91.951"},
    {"id": "205", "district_id": "36", "name": "Komalganj", "bn_name": "কমলগঞ্জ", "lat": "24.474", "lon": "91.538"},
    {"id": "206", "district_id": "36", "name": "Srimangal", "bn_name": "শ্রীমঙ্গল", "lat": "24.304", "lon": "91.734"},
    {"id": "207", "district_id": "37", "name": "Sadar", "bn_name": "সদর", "lat": "24.372", "lon": "91.302"},
    {"id": "208", "district_id": "37", "name": "Bahubal", "bn_name": "বাহুবল", "lat": "24.525", "lon": "91.387"},
    {"id": "209", "district_id": "37", "name": "Lakhai", "bn_name": "লাখাই", "lat": "24.201", "lon": "91.198"},
    {"id": "210", "district_id": "37", "name": "Nabiganj", "bn_name": "নবীগঞ্জ", "lat": "24.606", "lon": "91.132"},
    {"id": "211", "district_id": "37", "name": "Chunarughat", "bn_name": "চুনারুঘাট", "lat": "24.284", "lon": "91.526"},
    {"id": "212", "district_id": "37", "name": "Madhabpur", "bn_name": "মাধবপুর", "lat": "24.160", "lon": "91.357"},
    {"id": "213", "district_id": "37", "name": "Bania Chang", "bn_name": "বানিয়াচাঁদ", "lat": "24.009", "lon": "91.364"},
    {"id": "214", "district_id": "37", "name": "Azmiriganj", "bn_name": "আজমিরিগঞ্জ", "lat": "24.416", "lon": "91.115"},
    {"id": "215", "district_id": "38", "name": "Sadar", "bn_name": "সদর", "lat": "24.247", "lon": "89.917"},
    {"id": "216", "district_id": "38", "name": "Delduar", "bn_name": "ডেলদুয়ার", "lat": "24.323", "lon": "89.765"},
    {"id": "217", "district_id": "38", "name": "Mirjapur", "bn_name": "মির্জাপুর", "lat": "24.375", "lon": "89.814"},
    {"id": "218", "district_id": "38", "name": "Bhuapur", "bn_name": "ভোয়াপুর", "lat": "24.055", "lon": "89.905"},
    {"id": "219", "district_id": "38", "name": "Ghatail", "bn_name": "ঘাটাইল", "lat": "24.265", "lon": "90.050"},
    {"id": "220", "district_id": "38", "name": "Bashail", "bn_name": "বশাইল", "lat": "24.444", "lon": "89.990"},
    {"id": "221", "district_id": "38", "name": "Nagarpur", "bn_name": "নাগরপুর", "lat": "24.346", "lon": "90.167"},
    {"id": "222", "district_id": "38", "name": "Kalihati", "bn_name": "কালিহাটি", "lat": "24.143", "lon": "89.960"},
    {"id": "223", "district_id": "38", "name": "Sakhipur", "bn_name": "সাখিপুর", "lat": "24.176", "lon": "89.743"},
    {"id": "224", "district_id": "38", "name": "Gopalpur", "bn_name": "গোপালপুর", "lat": "24.360", "lon": "89.664"},
    {"id": "225", "district_id": "38", "name": "Dhanbari", "bn_name": "ধানবাড়ী", "lat": "24.131", "lon": "89.722"},
    {"id": "226", "district_id": "38", "name": "Madhupur", "bn_name": "মাধুপুর", "lat": "24.504", "lon": "89.847"},
    {"id": "227", "district_id": "39", "name": "Sadar", "bn_name": "সদর", "lat": "24.431", "lon": "90.778"},
    {"id": "228", "district_id": "39", "name": "Hossainpur", "bn_name": "হোসেইনপুর", "lat": "24.358", "lon": "90.654"},
    {"id": "229", "district_id": "39", "name": "Karimganj", "bn_name": "করিমগঞ্জ", "lat": "24.540", "lon": "90.887"},
    {"id": "230", "district_id": "39", "name": "Pakundia", "bn_name": "পাকুন্দিয়া", "lat": "24.276", "lon": "90.925"},
    {"id": "231", "district_id": "39", "name": "Nikli", "bn_name": "নিকলী", "lat": "24.312", "lon": "90.533"},
    {"id": "232", "district_id": "39", "name": "Bajitpur", "bn_name": "বাজিতপুর", "lat": "24.506", "lon": "90.623"},
    {"id": "233", "district_id": "39", "name": "Kuliarchar", "bn_name": "কুলিয়ারচর", "lat": "24.594", "lon": "90.505"},
    {"id": "234", "district_id": "39", "name": "Bhairab", "bn_name": "ভৈরব", "lat": "24.627", "lon": "90.652"},
    {"id": "235", "district_id": "39", "name": "Metaur Moain", "bn_name": "মিটৌর মোয়াইন", "lat": "24.531", "lon": "90.760"},
    {"id": "236", "district_id": "39", "name": "Itna", "bn_name": "ইটনা", "lat": "24.324", "lon": "90.772"},
    {"id": "237", "district_id": "39", "name": "Kotiadi", "bn_name": "কোটিয়াডী", "lat": "24.419", "lon": "91.008"},
    {"id": "238", "district_id": "39", "name": "Austogram", "bn_name": "আস্ট্রোগ্রাম", "lat": "24.201", "lon": "90.816"},
    {"id": "239", "district_id": "39", "name": "Tarail", "bn_name": "তারাইল", "lat": "24.182", "lon": "90.556"},
    {"id": "240", "district_id": "40", "name": "Sadar", "bn_name": "সদর", "lat": "24.877", "lon": "90.727"},
    {"id": "241", "district_id": "40", "name": "Atpara", "bn_name": "আটপাড়া", "lat": "24.913", "lon": "90.590"},
    {"id": "242", "district_id": "40", "name": "Barhatta", "bn_name": "বারহাট্টা", "lat": "25.028", "lon": "90.736"},
    {"id": "243", "district_id": "40", "name": "Mohanganj", "bn_name": "মোহাঙ্গঞ্জ", "lat": "24.815", "lon": "90.961"},
    {"id": "244", "district_id": "40", "name": "Kalmakanda", "bn_name": "কালমাকান্দা", "lat": "25.121", "lon": "91.006"},
    {"id": "245", "district_id": "40", "name": "Durgapur", "bn_name": "দুর্গাপুর", "lat": "24.707", "lon": "90.614"},
    {"id": "246", "district_id": "40", "name": "Madan", "bn_name": "মাদান", "lat": "24.947", "lon": "90.506"},
    {"id": "247", "district_id": "40", "name": "Kendua", "bn_name": "কেন্দুয়া", "lat": "25.147", "lon": "90.788"},
    {"id": "248", "district_id": "40", "name": "Purbadhala", "bn_name": "পূর্বধালা", "lat": "25.027", "lon": "90.926"},
    {"id": "249", "district_id": "40", "name": "Khaliajoori", "bn_name": "খালিয়াজুড়ী", "lat": "25.169", "lon": "90.618"},
    {"id": "250", "district_id": "41", "name": "Sadar", "bn_name": "সদর", "lat": "24.932", "lon": "89.927"},
    {"id": "251", "district_id": "41", "name": "Islampur", "bn_name": "ইসলামপুর", "lat": "25.031", "lon": "89.746"},
    {"id": "252", "district_id": "41", "name": "Dewanganj", "bn_name": "দেওয়ানগঞ্জ", "lat": "24.949", "lon": "90.080"},
    {"id": "253", "district_id": "41", "name": "Sarisha", "bn_name": "সারিশা", "lat": "24.824", "lon": "89.870"},
    {"id": "254", "district_id": "41", "name": "Madarganj", "bn_name": "মাদারগঞ্জ", "lat": "24.870", "lon": "89.670"},
    {"id": "255", "district_id": "41", "name": "Bokshiganj", "bn_name": "বক্সিগঞ্জ", "lat": "25.121", "lon": "89.954"},
    {"id": "256", "district_id": "41", "name": "Melandaha", "bn_name": "মেলান্দাহা", "lat": "24.880", "lon": "89.533"},
    {"id": "257", "district_id": "42", "name": "Sadar", "bn_name": "সদর", "lat": "25.208", "lon": "90.016"},
    {"id": "258", "district_id": "42", "name": "Nalka", "bn_name": "নালকা", "lat": "25.307", "lon": "90.041"},
    {"id": "259", "district_id": "42", "name": "Nalitabari", "bn_name": "নলিতাবাড়ী", "lat": "25.255", "lon": "89.827"},
    {"id": "260", "district_id": "42", "name": "Jhenaigati", "bn_name": "ঝেনাইগাতি", "lat": "25.087", "lon": "89.784"},
    {"id": "261", "district_id": "42", "name": "Sribardi", "bn_name": "শ্রীবর্দী", "lat": "25.386", "lon": "89.848"},
    {"id": "262", "district_id": "43", "name": "Sadar", "bn_name": "সদর", "lat": "24.747", "lon": "90.408"},
    {"id": "263", "district_id": "43", "name": "Muktagacha", "bn_name": "মুক্তাগাছা", "lat": "24.669", "lon": "90.505"},
    {"id": "264", "district_id": "43", "name": "Fulbaria", "bn_name": "ফুলবাড়িয়া", "lat": "24.847", "lon": "90.262"},
    {"id": "265", "district_id": "43", "name": "Bhaluka", "bn_name": "ভালুকা", "lat": "24.610", "lon": "90.340"},
    {"id": "266", "district_id": "43", "name": "Trishal", "bn_name": "ত্রিশাল", "lat": "24.948", "lon": "90.370"},
    {"id": "267", "district_id": "43", "name": "Gofargaon", "bn_name": "গফরগাঁও", "lat": "24.583", "lon": "90.228"},
    {"id": "268", "district_id": "43", "name": "Nandail", "bn_name": "নান্দাইল", "lat": "24.651", "lon": "90.726"},
    {"id": "269", "district_id": "43", "name": "Ishwarganj", "bn_name": "ঈশ্বরগঞ্জ", "lat": "24.878", "lon": "90.604"},
    {"id": "270", "district_id": "43", "name": "Dhobaura", "bn_name": "ধোবাউড়া", "lat": "24.804", "lon": "90.730"},
    {"id": "271", "district_id": "43", "name": "Gauripur", "bn_name": "গৌরীপুর", "lat": "24.579", "lon": "90.603"},
    {"id": "272", "district_id": "43", "name": "Phulpur", "bn_name": "ফুলপুর", "lat": "24.880", "lon": "90.213"},
    {"id": "273", "district_id": "43", "name": "Haluaghat", "bn_name": "হালুয়াঘাট", "lat": "24.875", "lon": "90.536"},
    {"id": "274", "district_id": "60", "name": "Sadar", "bn_name": "সদর", "lat": "23.605", "lon": "89.846"},
    {"id": "275", "district_id": "60", "name": "Boalmari", "bn_name": "বোয়ালমারী", "lat": "23.431", "lon": "89.734"},
    {"id": "276", "district_id": "60", "name": "Sadarpur", "bn_name": "সাদারপুর", "lat": "23.508", "lon": "89.879"},
    {"id": "277", "district_id": "60", "name": "Char Bhadrasan", "bn_name": "চর ভদ্রসন", "lat": "23.367", "lon": "89.761"},
    {"id": "278", "district_id": "61", "name": "Sadar", "bn_name": "সদর", "lat": "23.747", "lon": "89.640"},
    {"id": "279", "district_id": "61", "name": "Pangsha", "bn_name": "পাংশা", "lat": "23.666", "lon": "89.711"},
    {"id": "280", "district_id": "61", "name": "Goalando", "bn_name": "গোয়ালান্দো", "lat": "23.644", "lon": "89.525"},
    {"id": "281", "district_id": "61", "name": "Kalukhali", "bn_name": "কালুখালী", "lat": "23.846", "lon": "89.675"},
    {"id": "282", "district_id": "61", "name": "Baliakandi", "bn_name": "বালিয়াকান্দি", "lat": "23.844", "lon": "89.755"},
    {"id": "283", "district_id": "62", "name": "Sadar", "bn_name": "সদর", "lat": "23.011", "lon": "90.667"},
    {"id": "284", "district_id": "62", "name": "Kashiani", "bn_name": "কাশিয়ানী", "lat": "22.938", "lon": "90.637"},
    {"id": "285", "district_id": "62", "name": "Tongipara", "bn_name": "টেঙ্গিপাড়া", "lat": "22.990", "lon": "90.754"},
    {"id": "286", "district_id": "62", "name": "Muksudpur", "bn_name": "মুক্সুদপুর", "lat": "23.098", "lon": "90.643"},
    {"id": "287", "district_id": "62", "name": "Kotalipara", "bn_name": "কোটালীপাড়া", "lat": "23.021", "lon": "90.508"},
    {"id": "288", "district_id": "63", "name": "Sadar", "bn_name": "সদর", "lat": "23.164", "lon": "90.195"},
    {"id": "289", "district_id": "63", "name": "Kalkini", "bn_name": "কালকিনি", "lat": "23.033", "lon": "90.077"},
    {"id": "290", "district_id": "63", "name": "Rajoir", "bn_name": "রাজোয়ীর", "lat": "23.299", "lon": "90.193"},
    {"id": "291", "district_id": "63", "name": "Shibchar", "bn_name": "শিবচর", "lat": "23.048", "lon": "90.364"},
    {"id": "292", "district_id": "64", "name": "Sadar", "bn_name": "সদর", "lat": "23.245", "lon": "90.427"},
    {"id": "293", "district_id": "64", "name": "Damudda", "bn_name": "দামুদ্দা", "lat": "23.376", "lon": "90.512"},
    {"id": "294", "district_id": "64", "name": "Noria", "bn_name": "নোরিয়া", "lat": "23.101", "lon": "90.530"},
    {"id": "295", "district_id": "64", "name": "Jagira", "bn_name": "জাগিরা", "lat": "23.178", "lon": "90.258"},
    {"id": "296", "district_id": "64", "name": "Vedorganj", "bn_name": "বেদরগঞ্জ", "lat": "23.383", "lon": "90.238"}
]
